#cP2016  2  2  0  0  0.00000000      97 d+D   IGb08 FIT AIUB
## 1882 172800.00000000   900.00000000 57420 0.0000000000000
+   72   G01G02G03G05G06G07G08G09G10G11G12G13G14G15G16G17G18
+        G19G20G21G22G23G24G25G26G27G28G29G30G31R01R02R03R04
+        R05R06R07R08R09R10R11R12R13R14R15R16R17R18R19R20R21
+        R22R23R24R26E11E12E14E19E22E24E26E30C06C07C08C09C10
+        C11C12C14J01  0  0  0  0  0  0  0  0  0  0  0  0  0
++         5  4  4  5  5  4  4  4  5  4  4  4  4  4  4  4  4
++         4  4  4  5  5  4  4  4  4  4  4  4  4  4  4  4  4
++         4  4  4  4  4  5  4  4  4  4  4  4  4  4  4  5  5
++         4  4  4  4  4  5  4  4  5  4  4  4  4  4  4  4  4
++         4  4  4  4  0  0  0  0  0  0  0  0  0  0  0  0  0
%c M  cc GPS ccc cccc cccc cccc cccc ccccc ccccc ccccc ccccc
%c cc cc ccc ccc cccc cccc cccc cccc ccccc ccccc ccccc ccccc
%f  1.2500000  1.025000000  0.00000000000  0.000000000000000
%f  0.0000000  0.000000000  0.00000000000  0.000000000000000
%i    0    0    0    0      0      0      0      0         0
%i    0    0    0    0      0      0      0      0         0
/* CODE MGEX ORBIT SOLUTION                                 
/* FOR DOY 16033                                            
/* INCLUDING ESTIMATED SATELLITE CLOCKS                     
/* PCV:IGS08      OL/AL:FES2004  NONE     YN ORB:CoN CLK:CoN
*  2016  2  2  6 30  0.00000000
PG01  15665.296133    -10.543979  21401.393687     10.668955
PG02 -14191.428866 -21168.851311  -7790.679567    599.494390
PG03  20780.238908  -9030.340911  13871.296488    -19.417859
PG05 -12122.685851  -9767.286448 -21591.617085   -149.824844
PG06  -5657.709498 -25594.484160   4318.085412    138.939151
PG07   8389.607959 -16442.041159 -18817.979822    471.341378
PG08  25921.927710   5703.436284  -1101.394670    -22.319164
PG09  16767.500896  -9855.925887 -18110.465712     62.353002
PG10  -7659.926119  22169.207731  12420.618853     47.247417
PG11  20152.600148   3780.232088  16362.398435   -630.277249
PG12 -19858.750000   4769.939386  16745.099453    365.224393
PG13 -21764.728559 -12785.363552  -8251.342906   -182.557130
PG14    117.746285  15660.569430  21718.201896      5.530315
PG15 -26575.703894  -2104.666797   2091.253451   -295.212356
PG16  10488.902421  10151.483636 -22275.159015    -43.217969
PG17    788.810704 -15221.723091  22091.787967   -200.002246
PG18 -15390.717080  21392.833239   2251.954514    479.269782
PG19  -3671.320443 -15824.205238  20716.031136   -524.708810
PG20 -20082.810280   6604.598185 -16271.703486    389.964816
PG21  -5146.221603  19907.205070 -15919.886250   -508.381985
PG22   6711.797697  16026.025488  20299.938521    403.231922
PG23  24990.541973  -1898.736094  -9253.459049   -158.004516
PG24 -16666.807846  -3081.311688  20444.892000    -11.693965
PG25 -19839.318747  16305.014323   6276.339730   -109.864992
PG26   2009.608807  18232.777655 -19191.658075   -237.194459
PG27  21270.536573  11718.255965 -10948.473320     58.967552
PG28   9363.452184 -21428.963823  13172.097053    499.567330
PG29 -19564.748309   6655.914838 -16642.084244    653.318499
PG30   1809.866819 -23991.339767 -11167.328371     91.639218
PG31   6100.730831  25541.540881   2418.071920    284.433322
PR01 -20923.860464   3605.031227 -14155.003932   -146.239110
PR02 -21357.222975  13433.913588   3646.337423    174.460404
PR03  -8914.932851  14903.291825  18701.086074     61.396944
PR04   9008.817106   7445.184337  22681.517772    155.655479
PR05  21202.789961  -4112.644457  13551.212521      0.048345
PR06  20948.953781 -13899.887790  -4423.638843     83.044570
PR07   8779.270369 -14853.818310 -18771.797642     -5.885662
PR08  -8534.420639  -7730.854890 -22718.337867    -27.047703
PR09   8840.071756 -16218.375245 -17667.124761     25.729002
PR10   2208.263983 -25255.984614  -2480.682294     13.181946
PR11  -6035.812879 -20126.391324  14528.596598     23.039446
PR12 -10673.651418  -2570.943979  22991.125503     34.469165
PR13  -8558.688632  16437.845528  17510.812170     10.916507
PR14  -1555.794594  25472.938454   1082.089332    276.398743
PR15   5285.086971  20844.761272 -13622.510850     62.785723
PR16  10765.305971   1666.445651 -23097.808773     30.132096
PR17   9290.929944 -15952.263145 -17548.467555     70.697341
PR18  17464.743701  16159.493600  -9264.252485     87.271210
PR19  21870.766656   9115.305704   9450.528713   -147.233734
PR20  12856.104930  -3544.155743  21766.503895   -217.404562
PR21  -2854.315352 -13621.522662  21389.170480     49.319172
PR22 -17629.643588 -16047.413848   8895.288949    190.292105
PR23 -21964.759387  -8573.778429  -9734.426132    -76.652865
PR24 -13700.939314   2994.476496 -21322.268775   -133.345312
PR26  11851.918213  -4621.058729  22120.540113 999999.999999
PE11 -23508.273724 -17965.694032    689.500959     40.191065
PE12 -10680.354604 -22079.970932  16576.572095   -603.863420
PE14  29493.913564   5797.292748   2414.187317   3833.314440
PE19  21348.269342 -17469.930281 -10756.562255    -12.952468
PE22  -8278.473147  14814.818743 -24252.756945    698.768747
PE24 -11684.404266 -17160.833352  21106.314322   2440.804170
PE26  23498.181217   2108.756882  17873.787112   3759.594080
PE30    343.136923  29058.575258  -5582.159679   2410.631710
PC06 -25506.327075  29110.900563  16507.356583   -140.661260
PC07 -11806.738804  36416.710997  18055.517648    239.345746
PC08 -10151.564366  20437.856275 -35397.859663   -106.059614
PC09 -10838.891103  29049.282261  28517.966946    712.467226
PC10  -1116.847130  42068.506762   4340.167026    272.514215
PC11  22863.648611  14230.507060  -7069.494392    307.127578
PC12   5762.509766  17448.861046 -20926.091578    392.312043
PC14  13849.724605   9149.073291  22472.632088    820.318805
PJ01 -24536.273344  32645.209750  -5888.420455    -15.764241
EOF
